[{"OBJECT_NAME":"OBJECT G","OBJECT_ID":"2024-024G","EPOCH":"2026-03-09T20:28:53.132736","MEAN_MOTION":15.83306562,"ECCENTRICITY":0.00024191,"INCLINATION":97.3215,"RA_OF_ASC_NODE":161.9284,"ARG_OF_PERICENTER":77.0487,"MEAN_ANOMALY":283.1053,"EPHEMERIS_TYPE":0,"CLASSIFICATION_TYPE":"U","NORAD_CAT_ID":58923,"ELEMENT_SET_NO":999,"REV_AT_EPOCH":11779,"BSTAR":0.00058393874,"MEAN_MOTION_DOT":0.00127204,"MEAN_MOTION_DDOT":0},{"OBJECT_NAME":"STARLINK-36785","OBJECT_ID":"2026-034D","EPOCH":"2026-03-09T22:03:24.937632","MEAN_MOTION":15.81005381,"ECCENTRICITY":0.0001166,"INCLINATION":53.1587,"RA_OF_ASC_NODE":210.1814,"ARG_OF_PERICENTER":63.5803,"MEAN_ANOMALY":296.5339,"EPHEMERIS_TYPE":0,"CLASSIFICATION_TYPE":"U","NORAD_CAT_ID":67853,"ELEMENT_SET_NO":999,"REV_AT_EPOCH":397,"BSTAR":0.0015859754,"MEAN_MOTION_DOT":0.00326432,"MEAN_MOTION_DDOT":0}]
